{
  "norad_id": 66331,
  "name": "STARLINK-35257",
  "history": [
    {
      "epoch": "2026-03-28T18:07:44.472576Z",
      "apogee_km": 483.88370609549474,
      "perigee_km": 482.1438554805027,
      "latitude_deg": 2.0482779352923425e-05,
      "longitude_deg": 6.437551172182882,
      "height_km": 482.8539335983373,
      "semi_major_axis_km": 6861.150780787999,
      "eccentricity": 0.00012679,
      "inclination_deg": 42.9994,
      "raan_deg": 104.5441,
      "arg_perigee_deg": 265.8045,
      "mean_anomaly_deg": 94.2662,
      "mean_motion_rev_day": 15.27591794
    },
    {
      "epoch": "2026-03-29T01:58:31.404288Z",
      "apogee_km": 483.453387731729,
      "perigee_km": 482.5449733014275,
      "latitude_deg": -1.9132061357687898e-05,
      "longitude_deg": -113.4275788920653,
      "height_km": 482.9119804163745,
      "semi_major_axis_km": 6861.136180516578,
      "eccentricity": 6.62e-05,
      "inclination_deg": 42.9987,
      "raan_deg": 102.6968,
      "arg_perigee_deg": 252.4529,
      "mean_anomaly_deg": 107.625,
      "mean_motion_rev_day": 15.2759667
    },
    {
      "epoch": "2026-03-30T01:30:51.892704Z",
      "apogee_km": 483.6815344025863,
      "perigee_km": 482.22149476668255,
      "latitude_deg": -4.8955101616498115e-05,
      "longitude_deg": -113.01669194103206,
      "height_km": 482.7306782959444,
      "semi_major_axis_km": 6861.088514584634,
      "eccentricity": 0.0001064,
      "inclination_deg": 43.0019,
      "raan_deg": 97.1598,
      "arg_perigee_deg": 269.8011,
      "mean_anomaly_deg": 90.2718,
      "mean_motion_rev_day": 15.27612589
    },
    {
      "epoch": "2026-03-30T01:30:51.893568Z",
      "apogee_km": 483.6815344025863,
      "perigee_km": 482.22149476668255,
      "latitude_deg": -4.89551018971816e-05,
      "longitude_deg": -113.01669555088934,
      "height_km": 482.7306782959424,
      "semi_major_axis_km": 6861.088514584634,
      "eccentricity": 0.0001064,
      "inclination_deg": 43.0019,
      "raan_deg": 97.1598,
      "arg_perigee_deg": 269.8011,
      "mean_anomaly_deg": 90.2718,
      "mean_motion_rev_day": 15.27612589
    },
    {
      "epoch": "2026-03-30T07:47:29.322816Z",
      "apogee_km": 483.89581164408264,
      "perigee_km": 482.12563553139626,
      "latitude_deg": 3.720166064786701e-05,
      "longitude_deg": 151.0897515826169,
      "height_km": 482.52365806115995,
      "semi_major_axis_km": 6861.147723587739,
      "eccentricity": 0.000129,
      "inclination_deg": 43.001,
      "raan_deg": 95.6799,
      "arg_perigee_deg": 287.3384,
      "mean_anomaly_deg": 72.7327,
      "mean_motion_rev_day": 15.27592815
    },
    {
      "epoch": "2026-03-30T17:12:25.759584Z",
      "apogee_km": 483.6030543021725,
      "perigee_km": 482.4505160095423,
      "latitude_deg": 1.2771189017452557e-06,
      "longitude_deg": 7.253572416850478,
      "height_km": 482.73654361723106,
      "semi_major_axis_km": 6861.163785155857,
      "eccentricity": 8.399e-05,
      "inclination_deg": 43.0,
      "raan_deg": 93.4656,
      "arg_perigee_deg": 276.6227,
      "mean_anomaly_deg": 83.4529,
      "mean_motion_rev_day": 15.27587451
    },
    {
      "epoch": "2026-03-31T16:44:47.123232Z",
      "apogee_km": 483.4289687494993,
      "perigee_km": 482.6042580851672,
      "latitude_deg": -6.5912590745804855e-06,
      "longitude_deg": 7.659526760128107,
      "height_km": 482.83334226919084,
      "semi_major_axis_km": 6861.153613417333,
      "eccentricity": 6.01e-05,
      "inclination_deg": 43.0015,
      "raan_deg": 87.9273,
      "arg_perigee_deg": 264.3532,
      "mean_anomaly_deg": 95.7251,
      "mean_motion_rev_day": 15.27590848
    },
    {
      "epoch": "2026-04-01T16:17:07.906272Z",
      "apogee_km": 483.3778720148375,
      "perigee_km": 482.6684280553245,
      "latitude_deg": -4.4499560379828795e-06,
      "longitude_deg": 8.0660175548507,
      "height_km": 482.71277742714926,
      "semi_major_axis_km": 6861.160150035081,
      "eccentricity": 5.17e-05,
      "inclination_deg": 42.9975,
      "raan_deg": 82.3871,
      "arg_perigee_deg": 284.0322,
      "mean_anomaly_deg": 76.0472,
      "mean_motion_rev_day": 15.27588665
    },
    {
      "epoch": "2026-04-02T15:49:28.144128Z",
      "apogee_km": 483.9785724495214,
      "perigee_km": 481.98473136927714,
      "latitude_deg": -5.389784195794084e-06,
      "longitude_deg": 8.475982479735654,
      "height_km": 482.7598535426756,
      "semi_major_axis_km": 6861.118651909399,
      "eccentricity": 0.0001453,
      "inclination_deg": 42.9985,
      "raan_deg": 76.8481,
      "arg_perigee_deg": 269.9066,
      "mean_anomaly_deg": 90.1619,
      "mean_motion_rev_day": 15.27602524
    },
    {
      "epoch": "2026-04-02T23:40:15.243456Z",
      "apogee_km": 483.7121921589178,
      "perigee_km": 482.2625737992821,
      "latitude_deg": -3.1501159277636246e-07,
      "longitude_deg": -111.38869995418179,
      "height_km": 483.0285400228206,
      "semi_major_axis_km": 6861.1243829791,
      "eccentricity": 0.00010564,
      "inclination_deg": 43.0037,
      "raan_deg": 75.0019,
      "arg_perigee_deg": 248.6023,
      "mean_anomaly_deg": 111.4716,
      "mean_motion_rev_day": 15.2760061
    },
    {
      "epoch": "2026-04-04T14:54:10.710720Z",
      "apogee_km": 483.477534650282,
      "perigee_km": 482.53892998250103,
      "latitude_deg": 1.946878647228458e-05,
      "longitude_deg": 9.28700284916465,
      "height_km": 482.7333271798486,
      "semi_major_axis_km": 6861.145232316391,
      "eccentricity": 6.84e-05,
      "inclination_deg": 43.0024,
      "raan_deg": 65.7699,
      "arg_perigee_deg": 276.269,
      "mean_anomaly_deg": 83.8084,
      "mean_motion_rev_day": 15.27593647
    },
    {
      "epoch": "2026-04-05T06:35:44.504160Z",
      "apogee_km": 483.58315654745275,
      "perigee_km": 482.3563906563322,
      "latitude_deg": -2.007355578408572e-07,
      "longitude_deg": 129.55889789567755,
      "height_km": 482.9804296787008,
      "semi_major_axis_km": 6861.106773601892,
      "eccentricity": 8.94e-05,
      "inclination_deg": 43.0017,
      "raan_deg": 62.0771,
      "arg_perigee_deg": 247.5438,
      "mean_anomaly_deg": 112.5319,
      "mean_motion_rev_day": 15.27606491
    },
    {
      "epoch": "2026-04-06T06:08:05.277696Z",
      "apogee_km": 483.8425711396512,
      "perigee_km": 482.2076934267707,
      "latitude_deg": -5.587864301041511e-06,
      "longitude_deg": 129.9679171772492,
      "height_km": 482.89851816513294,
      "semi_major_axis_km": 6861.162132283211,
      "eccentricity": 0.00011914,
      "inclination_deg": 43.0019,
      "raan_deg": 56.5394,
      "arg_perigee_deg": 263.2084,
      "mean_anomaly_deg": 96.8632,
      "mean_motion_rev_day": 15.27588003
    },
    {
      "epoch": "2026-04-07T21:21:59.930208Z",
      "apogee_km": 483.2723200468927,
      "perigee_km": 482.7879216481606,
      "latitude_deg": -2.5688741653427947e-05,
      "longitude_deg": -109.35232225940028,
      "height_km": 482.86467707206805,
      "semi_major_axis_km": 6861.167120847526,
      "eccentricity": 3.53e-05,
      "inclination_deg": 43.0004,
      "raan_deg": 47.3081,
      "arg_perigee_deg": 255.9574,
      "mean_anomaly_deg": 104.1238,
      "mean_motion_rev_day": 15.27586337
    },
    {
      "epoch": "2026-04-08T13:03:33.668352Z",
      "apogee_km": 483.6483348035208,
      "perigee_km": 482.3849219743888,
      "latitude_deg": -4.298787504037269e-05,
      "longitude_deg": 10.918805201996152,
      "height_km": 482.8512107834314,
      "semi_major_axis_km": 6861.1536283889545,
      "eccentricity": 9.207e-05,
      "inclination_deg": 43.0049,
      "raan_deg": 43.6143,
      "arg_perigee_deg": 264.7543,
      "mean_anomaly_deg": 95.3203,
      "mean_motion_rev_day": 15.27590843
    },
    {
      "epoch": "2026-04-09T12:35:55.013856Z",
      "apogee_km": 483.35509072238074,
      "perigee_km": 482.72303918327634,
      "latitude_deg": 2.004076703769504e-05,
      "longitude_deg": 11.325206710088407,
      "height_km": 482.49857986655326,
      "semi_major_axis_km": 6861.176064952828,
      "eccentricity": 4.606e-05,
      "inclination_deg": 43.0004,
      "raan_deg": 38.0763,
      "arg_perigee_deg": 359.1013,
      "mean_anomaly_deg": 0.9838,
      "mean_motion_rev_day": 15.2758335
    },
    {
      "epoch": "2026-04-10T12:08:15.412416Z",
      "apogee_km": 483.64725560287206,
      "perigee_km": 482.3848034454395,
      "latitude_deg": -1.8374475305993146e-05,
      "longitude_deg": 11.733856794296653,
      "height_km": 482.40590336452055,
      "semi_major_axis_km": 6861.1530295241555,
      "eccentricity": 9.2e-05,
      "inclination_deg": 43.0041,
      "raan_deg": 32.5367,
      "arg_perigee_deg": 307.785,
      "mean_anomaly_deg": 52.2918,
      "mean_motion_rev_day": 15.27591043
    },
    {
      "epoch": "2026-04-11T11:40:36.166944Z",
      "apogee_km": 483.60467953837724,
      "perigee_km": 482.4657249528045,
      "latitude_deg": 2.191620517848602e-05,
      "longitude_deg": 12.141904197277801,
      "height_km": 482.6444115802349,
      "semi_major_axis_km": 6861.172202245591,
      "eccentricity": 8.3e-05,
      "inclination_deg": 43.0022,
      "raan_deg": 26.9979,
      "arg_perigee_deg": 287.077,
      "mean_anomaly_deg": 72.9991,
      "mean_motion_rev_day": 15.2758464
    },
    {
      "epoch": "2026-04-13T04:28:40.502496Z",
      "apogee_km": 484.0879876662657,
      "perigee_km": 481.9371544987225,
      "latitude_deg": -3.303640733664507e-05,
      "longitude_deg": 108.847933679308,
      "height_km": 482.71228241683355,
      "semi_major_axis_km": 6861.149571082494,
      "eccentricity": 0.00015674,
      "inclination_deg": 43.0026,
      "raan_deg": 17.3977,
      "arg_perigee_deg": 274.1287,
      "mean_anomaly_deg": 85.9385,
      "mean_motion_rev_day": 15.27592198
    }
  ]
}